COSMOS 2413 (712)       
1 28509U 04053B   15345.46741550  .00000101  00000-0  00000+0 0  9997
2 28509  63.1313 196.8187 0005542 159.5541 274.2442  2.13101845 85282
COSMOS 2419 (714)       
1 28915U 05050A   15345.34832682 -.00000010  00000-0  00000+0 0  9990
2 28915  65.2402  84.5431 0014260 352.6058 348.1380  2.13113076 77525
COSMOS 2425 (716)       
1 29670U 06062A   15344.87046741 -.00000028  00000-0  10000-3 0  9997
2 29670  65.7123 323.5162 0022384 338.4682  58.5802  2.13104945 69726
COSMOS 2426 (717)       
1 29671U 06062B   15345.25343564 -.00000027  00000-0  10000-3 0  9993
2 29671  65.7291 323.5805 0016281 174.9427  18.1563  2.13103095 69738
COSMOS 2424 (715)       
1 29672U 06062C   15344.42687641 -.00000029  00000-0  10000-3 0  9991
2 29672  65.7147 323.5405 0015819 174.2185 281.6535  2.13102139 69717
COSMOS 2433 (720)       
1 32275U 07052A   15344.72685197 -.00000015  00000-0  10000-3 0  9996
2 32275  65.2550  84.3312 0002628 228.0539 250.5240  2.13104978 63239
COSMOS 2432 (719)       
1 32276U 07052B   15344.78585615 -.00000015  00000-0  10000-3 0  9997
2 32276  65.2674  84.3919 0010301 337.5710 140.5524  2.13104214 63230
COSMOS 2434 (721)       
1 32393U 07065A   15345.13492034 -.00000028  00000-0  00000+0 0  9992
2 32393  65.3322 322.9198 0001496 146.2499 179.0177  2.13102835 61949
COSMOS 2436 (723)       
1 32395U 07065C   15345.13578205 -.00000028  00000-0  10000-3 0  9994
2 32395  65.3450 322.9590 0017582 344.4721  73.4382  2.13102890 61881
COSMOS 2443 (725)       
1 33379U 08046B   15344.85572837 -.00000015  00000-0  10000-3 0  9996
2 33379  65.1834  83.7621 0019336 183.2968 301.5815  2.13101485 56100
COSMOS 2456 (730)       
1 36111U 09070A   15345.39036010  .00000098  00000-0  00000+0 0  9994
2 36111  64.1863 202.5347 0003796 340.7086 349.1207  2.13103034 46618
COSMOS 2457 (733)       
1 36112U 09070B   15344.85449425  .00000099  00000-0  00000+0 0  9994
2 36112  64.1689 202.4846 0007078 151.0290 258.8604  2.13101654 46618
COSMOS 2458 (734)       
1 36113U 09070C   15345.45854243  .00000098  00000-0  10000-3 0  9994
2 36113  64.1738 202.4680 0002511  51.7198 148.7750  2.13101919 46624
COSMOS 2459 (731)       
1 36400U 10007A   15344.79496632 -.00000016  00000-0  10000-3 0  9996
2 36400  65.1621  83.5038 0026984 353.9344  43.9559  2.13102314 44968
COSMOS 2461 (735)       
1 36401U 10007B   15344.52486294 -.00000018  00000-0  10000-3 0  9993
2 36401  65.1553  83.4960 0006281  87.0778  14.1536  2.13102267 44951
COSMOS 2460 (732)       
1 36402U 10007C   15344.75645093 -.00000016  00000-0  10000-3 0  9991
2 36402  65.1453  83.4673 0001500 161.7337 159.3177  2.13101980 44956
COSMOS 2466 (738)       
1 37137U 10041A   15345.18459777 -.00000029  00000-0  10000-3 0  9999
2 37137  64.9158 323.1170 0019306 160.9898  66.0212  2.13102336 41040
COSMOS 2465 (737)       
1 37138U 10041B   15345.13116688 -.00000029  00000-0  00000+0 0  9991
2 37138  64.9327 323.1885 0034192 172.8536 195.6543  2.13102808 41043
COSMOS 2464 (736)       
1 37139U 10041C   15344.71489765 -.00000030  00000-0  00000+0 0  9996
2 37139  64.9349 323.1944 0021317   6.4420 177.2922  2.13102941 41037
COSMOS 2471 (701K)      
1 37372U 11009A   15345.04274675 -.00000014  00000-0  00000+0 0  9991
2 37372  65.1432  83.4078 0008176 226.8866  85.7435  2.13102944 37238
COSMOS 2474 (742)       
1 37829U 11055A   15345.14376600  .00000099  00000-0  00000+0 0  9993
2 37829  64.5106 202.8773 0006248 251.1049 111.7928  2.13101944 32610
COSMOS 2476 (744)       
1 37867U 11064A   15345.22901877  .00000099  00000-0  00000+0 0  9994
2 37867  64.4910 202.9605 0015020 246.9237 227.1253  2.13102052 31969
COSMOS 2477 (745)       
1 37868U 11064B   15344.30821222  .00000100  00000-0  00000+0 0  9991
2 37868  64.4993 203.0301 0013151 248.1430  58.9138  2.13101971 31891
COSMOS 2475 (743)       
1 37869U 11064C   15345.46741549  .00000098  00000-0  00000+0 0  9999
2 37869  64.5066 202.9768 0018845 278.7200 153.6700  2.13102266 31939
COSMOS 2478 (746)       
1 37938U 11071A   15344.95474419 -.00000014  00000-0  00000+0 0  9995
2 37938  65.1700  83.6256 0014191 237.8637 129.9497  2.13088694 31537
COSMOS 2485 (747)       
1 39155U 13019A   15344.76406069  .00000100  00000-0  00000+0 0  9992
2 39155  64.6598 202.8850 0015283 240.7704 281.7834  2.13102134 20429
COSMOS 2492 (754)       
1 39620U 14012A   15343.63908733 -.00000025  00000-0  10000-3 0  9995
2 39620  65.0337  83.5202 0014150 332.0681  80.0324  2.13103646 13355
COSMOS 2500 (755)       
1 40001U 14032A   15345.18035472 -.00000013  00000-0  00000+0 0  9997
2 40001  64.9747  83.5064 0007258 197.0475 181.5542  2.13102934 11604
COSMOS 2501 (702K)      
1 40315U 14075A   15344.71489765 -.00000030  00000-0  00000+0 0  9997
2 40315  64.7031 324.7103 0018984 239.9228 303.8251  2.13101596  7996
